ONEWEB-0205             
1 48226U 21031S   26027.77656941  .00000200  00000+0  50556-3 0  9996
2 48226  87.9029 317.6821 0001857  83.5536 276.5805 13.14502910229820
ONEWEB-0206             
1 48227U 21031T   26027.74960675 -.00000197  00000+0 -56583-3 0  9999
2 48227  87.9041 317.6830 0001596  70.2700 289.8602 13.14503170229776
ONEWEB-0182             
1 48228U 21031U   26027.36425637 -.00000180  00000+0 -51979-3 0  9998
2 48228  87.9023 317.7786 0001981  76.7840 283.3511 13.14501878229931
ONEWEB-0186             
1 48229U 21031V   26027.52760237 -.00000137  00000+0 -40337-3 0  9993
2 48229  87.9036 317.7298 0001802  81.6381 278.4953 13.14503495229900
ONEWEB-0181             
1 48230U 21031W   26027.50539991 -.00000025  00000+0 -10143-3 0  9992
2 48230  87.9020 317.7817 0001672  84.1625 275.9696 13.14502992229756
ONEWEB-0188             
1 48231U 21031X   26027.77179735  .00000008  00000+0 -12220-4 0  9997
2 48231  87.9021 317.7259 0001768  80.1792 279.9537 13.14502237229698
ONEWEB-0220             
1 48232U 21031Y   26027.81144339 -.00000064  00000+0 -20770-3 0  9996
2 48232  87.9040 317.6725 0001824  83.8158 276.3180 13.14501281229969
ONEWEB-0165             
1 48233U 21031Z   26027.76387817 -.00000219  00000+0 -62591-3 0  9990
2 48233  87.9017 317.7020 0001515  88.4061 271.7243 13.14503090229918
